stk.v.4.3 

BEGIN Ephemeris 
 
NumberOfEphemerisPoints		146 
ScenarioEpoch	    3 Sep 2020 17: 8:14.978418947 
InterpolationMethod		Lagrange 
InterpolationOrder		5 
CentralBody				Earth 
CoordinateSystem			TEME 
CoordinateSystemEpoch	  3 Sep 2020 17: 8:14.978418947 
DistanceUnit			Kilometers 
 
EphemerisTimePosVel 
 
       0.00000000   -2303.41968314   -6777.85122678       0.04247588  0.447318744 -0.141929218  7.449020270
 END Ephemeris 
